start=new Date('2022-03-09T00:00:00.000Z').valueOf();
sats=[{"MEAN_MOTION_DDOT":"0.0000000000000","BSTAR":"0.00084952000000","CLASSIFICATION_TYPE":"U","CENTER_NAME":"EARTH","TLE_LINE2":"2 46346  53.0545 321.7839 0002907  26.9259 333.1893 15.34260381 85928","MEAN_MOTION_DOT":"0.00028311","NORAD_CAT_ID":"46346","PERIOD":"93.856","MEAN_ANOMALY":"333.1893","ECCENTRICITY":"0.00029070","GP_ID":"198272435","MEAN_MOTION":"15.34260381","MEAN_ELEMENT_THEORY":"SGP4","ARG_OF_PERICENTER":"26.9259","RCS_SIZE":"LARGE","TIME_SYSTEM":"UTC","RA_OF_ASC_NODE":"321.7839","FILE":"3351330","INCLINATION":"53.0545","SITE":"AFETR","OBJECT_TYPE":"PAYLOAD","TLE_LINE1":"1 46346U 20062X   22067.96296326  .00028311  00000-0  84952-3 0  9999","REF_FRAME":"TEME","REV_AT_EPOCH":"8592","PERIAPSIS":"461.131","OBJECT_NAME":"STARLINK-1546","DECAY_DATE":null,"APOAPSIS":"465.109","COUNTRY_CODE":"US","EPHEMERIS_TYPE":"0","OBJECT_ID":"2020-062X","ELEMENT_SET_NO":"999","SEMIMAJOR_AXIS":"6841.255","EPOCH":"2022-03-08T23:06:40.025664","LAUNCH_DATE":"2020-09-03"},{"EPHEMERIS_TYPE":"0","COUNTRY_CODE":"US","LAUNCH_DATE":"2020-09-03","SEMIMAJOR_AXIS":"6925.352","EPOCH":"2022-03-08T15:58:27.705216","ELEMENT_SET_NO":"999","OBJECT_ID":"2020-062Y","PERIAPSIS":"545.914","REV_AT_EPOCH":"8456","DECAY_DATE":null,"APOAPSIS":"548.520","OBJECT_NAME":"STARLINK-1547","FILE":"3351330","INCLINATION":"53.0555","RCS_SIZE":"LARGE","TIME_SYSTEM":"UTC","RA_OF_ASC_NODE":"54.8864","REF_FRAME":"TEME","TLE_LINE1":"1 46347U 20062Y   22067.66559844  .00000249  00000-0  35600-4 0  9991","SITE":"AFETR","OBJECT_TYPE":"PAYLOAD","CENTER_NAME":"EARTH","TLE_LINE2":"2 46347  53.0555  54.8864 0001882  47.9137 312.2011 15.06398920 84560","NORAD_CAT_ID":"46347","MEAN_MOTION_DOT":"0.00000249","CLASSIFICATION_TYPE":"U","BSTAR":"0.00003560000000","MEAN_MOTION_DDOT":"0.0000000000000","MEAN_ELEMENT_THEORY":"SGP4","ARG_OF_PERICENTER":"47.9137","GP_ID":"198272685","ECCENTRICITY":"0.00018820","MEAN_MOTION":"15.06398920","PERIOD":"95.592","MEAN_ANOMALY":"312.2011"},{"SEMIMAJOR_AXIS":"6925.409","EPOCH":"2022-03-08T12:14:53.019168","LAUNCH_DATE":"2020-09-03","OBJECT_ID":"2020-062Z","ELEMENT_SET_NO":"999","EPHEMERIS_TYPE":"0","COUNTRY_CODE":"US","DECAY_DATE":null,"APOAPSIS":"548.607","OBJECT_NAME":"STARLINK-1553","REV_AT_EPOCH":"8438","PERIAPSIS":"545.941","TLE_LINE1":"1 46348U 20062Z   22067.51033587 -.00001862  00000-0 -10620-3 0  9995","REF_FRAME":"TEME","OBJECT_TYPE":"PAYLOAD","SITE":"AFETR","FILE":"3350861","INCLINATION":"53.0532","TIME_SYSTEM":"UTC","RCS_SIZE":"LARGE","RA_OF_ASC_NODE":"80.5844","GP_ID":"198216269","ECCENTRICITY":"0.00019250","MEAN_MOTION":"15.06380370","MEAN_ELEMENT_THEORY":"SGP4","ARG_OF_PERICENTER":"50.0324","PERIOD":"95.593","MEAN_ANOMALY":"310.0834","BSTAR":"-0.00010620000000","CLASSIFICATION_TYPE":"U","TLE_LINE2":"2 46348  53.0532  80.5844 0001925  50.0324 310.0834 15.06380370 84380","CENTER_NAME":"EARTH","MEAN_MOTION_DOT":"-0.00001862","NORAD_CAT_ID":"46348","MEAN_MOTION_DDOT":"0.0000000000000"},{"SITE":"AFETR","OBJECT_TYPE":"PAYLOAD","TLE_LINE1":"1 46349U 20062AA  22067.24170463  .00000721  00000-0  67328-4 0  9990","REF_FRAME":"TEME","RA_OF_ASC_NODE":"56.8065","RCS_SIZE":"LARGE","TIME_SYSTEM":"UTC","INCLINATION":"53.0592","FILE":"3350976","PERIOD":"95.592","MEAN_ANOMALY":"308.2327","MEAN_MOTION":"15.06398886","GP_ID":"198239239","ECCENTRICITY":"0.00018230","ARG_OF_PERICENTER":"51.8826","MEAN_ELEMENT_THEORY":"SGP4","MEAN_MOTION_DDOT":"0.0000000000000","CLASSIFICATION_TYPE":"U","BSTAR":"0.00006732800000","NORAD_CAT_ID":"46349","MEAN_MOTION_DOT":"0.00000721","CENTER_NAME":"EARTH","TLE_LINE2":"2 46349  53.0592  56.8065 0001823  51.8826 308.2327 15.06398886 84513","OBJECT_ID":"2020-062AA","ELEMENT_SET_NO":"999","EPOCH":"2022-03-08T05:48:03.280032","SEMIMAJOR_AXIS":"6925.352","LAUNCH_DATE":"2020-09-03","COUNTRY_CODE":"US","EPHEMERIS_TYPE":"0","OBJECT_NAME":"STARLINK-1575","APOAPSIS":"548.479","DECAY_DATE":null,"REV_AT_EPOCH":"8451","PERIAPSIS":"545.954"},{"PERIAPSIS":"545.926","REV_AT_EPOCH":"8397","OBJECT_NAME":"STARLINK-1617","DECAY_DATE":null,"APOAPSIS":"548.573","COUNTRY_CODE":"US","EPHEMERIS_TYPE":"0","ELEMENT_SET_NO":"999","OBJECT_ID":"2020-062AB","LAUNCH_DATE":"2020-09-03","SEMIMAJOR_AXIS":"6925.385","EPOCH":"2022-03-08T19:16:50.879424","MEAN_MOTION_DDOT":"0.0000000000000","CENTER_NAME":"EARTH","TLE_LINE2":"2 46350  53.0557  99.2867 0001911  53.5045 306.6119 15.06388268 83970","NORAD_CAT_ID":"46350","MEAN_MOTION_DOT":"0.00000444","BSTAR":"0.00004875300000","CLASSIFICATION_TYPE":"U","MEAN_ANOMALY":"306.6119","PERIOD":"95.593","MEAN_ELEMENT_THEORY":"SGP4","ARG_OF_PERICENTER":"53.5045","GP_ID":"198272936","ECCENTRICITY":"0.00019110","MEAN_MOTION":"15.06388268","RCS_SIZE":"LARGE","TIME_SYSTEM":"UTC","RA_OF_ASC_NODE":"99.2867","FILE":"3351330","INCLINATION":"53.0557","SITE":"AFETR","OBJECT_TYPE":"PAYLOAD","REF_FRAME":"TEME","TLE_LINE1":"1 46350U 20062AB  22067.80336666  .00000444  00000-0  48753-4 0  9996"},{"ELEMENT_SET_NO":"999","OBJECT_ID":"2020-062AC","LAUNCH_DATE":"2020-09-03","SEMIMAJOR_AXIS":"6925.409","EPOCH":"2022-03-08T17:49:17.077728","COUNTRY_CODE":"US","EPHEMERIS_TYPE":"0","OBJECT_NAME":"STARLINK-1646","DECAY_DATE":null,"APOAPSIS":"548.461","REV_AT_EPOCH":"8424","PERIAPSIS":"546.086","OBJECT_TYPE":"PAYLOAD","SITE":"AFETR","REF_FRAME":"TEME","TLE_LINE1":"1 46351U 20062AC  22067.74255877 -.00001432  00000-0 -77271-4 0  9991","RCS_SIZE":"LARGE","TIME_SYSTEM":"UTC","RA_OF_ASC_NODE":"79.5438","FILE":"3351330","INCLINATION":"53.0539","MEAN_ANOMALY":"310.9939","PERIOD":"95.593","MEAN_ELEMENT_THEORY":"SGP4","ARG_OF_PERICENTER":"49.1198","ECCENTRICITY":"0.00017150","GP_ID":"198273186","MEAN_MOTION":"15.06380416","MEAN_MOTION_DDOT":"0.0000000000000","TLE_LINE2":"2 46351  53.0539  79.5438 0001715  49.1198 310.9939 15.06380416 84244","CENTER_NAME":"EARTH","NORAD_CAT_ID":"46351","MEAN_MOTION_DOT":"-0.00001432","BSTAR":"-0.00007727100000","CLASSIFICATION_TYPE":"U"},{"FILE":"3351330","INCLINATION":"53.0539","RCS_SIZE":"LARGE","TIME_SYSTEM":"UTC","RA_OF_ASC_NODE":"79.6280","TLE_LINE1":"1 46352U 20062AD  22067.72413815  .00001217  00000-0  10058-3 0  9996","REF_FRAME":"TEME","SITE":"AFETR","OBJECT_TYPE":"PAYLOAD","CLASSIFICATION_TYPE":"U","BSTAR":"0.00010058000000","CENTER_NAME":"EARTH","TLE_LINE2":"2 46352  53.0539  79.6280 0001564  56.0593 304.0544 15.06391228 84248","NORAD_CAT_ID":"46352","MEAN_MOTION_DOT":"0.00001217","MEAN_MOTION_DDOT":"0.0000000000000","ECCENTRICITY":"0.00015640","GP_ID":"198273437","MEAN_MOTION":"15.06391228","MEAN_ELEMENT_THEORY":"SGP4","ARG_OF_PERICENTER":"56.0593","PERIOD":"95.593","MEAN_ANOMALY":"304.0544","EPHEMERIS_TYPE":"0","COUNTRY_CODE":"US","SEMIMAJOR_AXIS":"6925.375","EPOCH":"2022-03-08T17:22:45.536160","LAUNCH_DATE":"2020-09-03","OBJECT_ID":"2020-062AD","ELEMENT_SET_NO":"999","PERIAPSIS":"546.157","REV_AT_EPOCH":"8424","DECAY_DATE":null,"APOAPSIS":"548.324","OBJECT_NAME":"STARLINK-1653"},{"DECAY_DATE":null,"APOAPSIS":"548.460","OBJECT_NAME":"STARLINK-1656","REV_AT_EPOCH":"8396","PERIAPSIS":"546.048","LAUNCH_DATE":"2020-09-03","SEMIMAJOR_AXIS":"6925.389","EPOCH":"2022-03-08T18:55:36.847488","ELEMENT_SET_NO":"999","OBJECT_ID":"2020-062AE","EPHEMERIS_TYPE":"0","COUNTRY_CODE":"US","MEAN_ELEMENT_THEORY":"SGP4","ARG_OF_PERICENTER":"61.8364","GP_ID":"198273688","ECCENTRICITY":"0.00017410","MEAN_MOTION":"15.06386781","MEAN_ANOMALY":"298.2800","PERIOD":"95.593","CENTER_NAME":"EARTH","TLE_LINE2":"2 46353  53.0548  99.3535 0001741  61.8364 298.2800 15.06386781 83963","NORAD_CAT_ID":"46353","MEAN_MOTION_DOT":"0.00000116","BSTAR":"0.00002671900000","CLASSIFICATION_TYPE":"U","MEAN_MOTION_DDOT":"0.0000000000000","REF_FRAME":"TEME","TLE_LINE1":"1 46353U 20062AE  22067.78862092  .00000116  00000-0  26719-4 0  9997","SITE":"AFETR","OBJECT_TYPE":"PAYLOAD","FILE":"3351330","INCLINATION":"53.0548","RCS_SIZE":"LARGE","TIME_SYSTEM":"UTC","RA_OF_ASC_NODE":"99.3535"},{"EPHEMERIS_TYPE":"0","COUNTRY_CODE":"US","EPOCH":"2022-03-08T18:39:41.152896","SEMIMAJOR_AXIS":"6925.382","LAUNCH_DATE":"2020-09-03","OBJECT_ID":"2020-062AF","ELEMENT_SET_NO":"999","PERIAPSIS":"546.071","REV_AT_EPOCH":"8396","APOAPSIS":"548.423","DECAY_DATE":null,"OBJECT_NAME":"STARLINK-1657","INCLINATION":"53.0532","FILE":"3351330","RA_OF_ASC_NODE":"99.3858","RCS_SIZE":"LARGE","TIME_SYSTEM":"UTC","TLE_LINE1":"1 46354U 20062AF  22067.77755964 -.00002152  00000-0 -12566-3 0  9994","REF_FRAME":"TEME","SITE":"AFETR","OBJECT_TYPE":"PAYLOAD","BSTAR":"-0.00012566000000","CLASSIFICATION_TYPE":"U","NORAD_CAT_ID":"46354","MEAN_MOTION_DOT":"-0.00002152","CENTER_NAME":"EARTH","TLE_LINE2":"2 46354  53.0532  99.3858 0001698  54.9217 305.1931 15.06389111 83969","MEAN_MOTION_DDOT":"0.0000000000000","MEAN_MOTION":"15.06389111","ECCENTRICITY":"0.00016980","GP_ID":"198272436","ARG_OF_PERICENTER":"54.9217","MEAN_ELEMENT_THEORY":"SGP4","PERIOD":"95.593","MEAN_ANOMALY":"305.1931"},{"PERIAPSIS":"546.114","REV_AT_EPOCH":"8397","APOAPSIS":"548.423","DECAY_DATE":null,"OBJECT_NAME":"STARLINK-1661","EPHEMERIS_TYPE":"0","COUNTRY_CODE":"US","EPOCH":"2022-03-08T19:38:05.695008","SEMIMAJOR_AXIS":"6925.404","LAUNCH_DATE":"2020-09-03","OBJECT_ID":"2020-062AG","ELEMENT_SET_NO":"999","BSTAR":"-0.00011634000000","CLASSIFICATION_TYPE":"U","NORAD_CAT_ID":"46355","MEAN_MOTION_DOT":"-0.00002013","TLE_LINE2":"2 46355  53.0546  99.2149 0001667  61.1617 298.9539 15.06382051 83977","CENTER_NAME":"EARTH","MEAN_MOTION_DDOT":"0.0000000000000","MEAN_MOTION":"15.06382051","ECCENTRICITY":"0.00016670","GP_ID":"198272686","ARG_OF_PERICENTER":"61.1617","MEAN_ELEMENT_THEORY":"SGP4","MEAN_ANOMALY":"298.9539","PERIOD":"95.593","INCLINATION":"53.0546","FILE":"3351330","RA_OF_ASC_NODE":"99.2149","RCS_SIZE":"LARGE","TIME_SYSTEM":"UTC","TLE_LINE1":"1 46355U 20062AG  22067.81812147 -.00002013  00000-0 -11634-3 0  9998","REF_FRAME":"TEME","OBJECT_TYPE":"PAYLOAD","SITE":"AFETR"}];
